{
  "stores": [
    {
      "zip_code": "929-1425",
      "name": "瑠璃光薬局志雄店",
      "address": "羽咋郡宝達志水町子浦ハ7-1",
      "phone_number": "0767-29-4877",
      "fax": "0767-29-4876",
      "is_available": null,
      "location_lat": 36.8663578,
      "location_lng": 136.7939632
    },
    {
      "zip_code": "929-1311",
      "name": "押水瑠璃光薬局",
      "address": "羽咋郡宝達志水町門前150番地9",
      "phone_number": "0767-28-8585",
      "fax": "0767-28-8586",
      "is_available": null,
      "location_lat": 36.815678,
      "location_lng": 136.7642764
    },
    {
      "zip_code": "929-1344",
      "name": "アルプ薬局押水店",
      "address": "羽咋郡宝達志水町今浜ト176番地5",
      "phone_number": "0767-28-5585",
      "fax": "0767-28-5583",
      "is_available": null,
      "location_lat": 36.8246478,
      "location_lng": 136.7571534
    },
    {
      "zip_code": "925-0026",
      "name": "クスリのアオキ羽咋店青木二階堂薬局",
      "address": "羽咋市石野町ト37",
      "phone_number": "0767-22-3033",
      "fax": "0767-22-3051",
      "is_available": null,
      "location_lat": 36.8957254,
      "location_lng": 136.7940575
    },
    {
      "zip_code": "925-0033",
      "name": "ヒラバ薬局",
      "address": "羽咋市川原町エ168-2",
      "phone_number": "0767-22-7788",
      "fax": "0767-22-0586",
      "is_available": null,
      "location_lat": 36.8969251,
      "location_lng": 136.7807379
    },
    {
      "zip_code": "925-0072",
      "name": "瑠璃光薬局碁石ヶ峰登り口店",
      "address": "羽咋市大町イ8-8",
      "phone_number": "0767-23-4368",
      "fax": "0767-23-4367",
      "is_available": null,
      "location_lat": 36.9346346,
      "location_lng": 136.8664611
    },
    {
      "zip_code": "925-0027",
      "name": "鶴多あおぞら薬局",
      "address": "羽咋市鶴多町亀田4番5",
      "phone_number": "0767-22-8931",
      "fax": "0767-22-8131",
      "is_available": null,
      "location_lat": 36.8963053,
      "location_lng": 136.7921755
    },
    {
      "zip_code": "925-0036",
      "name": "はくい薬局",
      "address": "羽咋市的場町稲荷山出口8-2",
      "phone_number": "0767-22-9122",
      "fax": "0767-22-9334",
      "is_available": null,
      "location_lat": 36.9004019,
      "location_lng": 136.7810074
    },
    {
      "zip_code": "925-0036",
      "name": "さくら薬局羽咋的場店",
      "address": "羽咋市的場町稲荷山出口10-1",
      "phone_number": "0767-22-9383",
      "fax": "0767-22-9384",
      "is_available": null,
      "location_lat": 36.9004919,
      "location_lng": 136.7809688
    },
    {
      "zip_code": "925-0036",
      "name": "はくいあおば薬局",
      "address": "羽咋市的場町的場13-1",
      "phone_number": "0767-22-8788",
      "fax": "0767-22-2206",
      "is_available": null,
      "location_lat": 36.8983168,
      "location_lng": 136.7790126
    },
    {
      "zip_code": "925-0049",
      "name": "羽咋菜の花薬局",
      "address": "羽咋市柳橋町堂田55-1",
      "phone_number": "0767-22-7722",
      "fax": "0767-22-7741",
      "is_available": null,
      "location_lat": 36.8925125,
      "location_lng": 136.7865458
    },
    {
      "zip_code": "925-0034",
      "name": "なぎさ薬局",
      "address": "羽咋市旭町ア57番3",
      "phone_number": "0767-22-0171",
      "fax": "0767-22-0566",
      "is_available": null,
      "location_lat": 36.8963431,
      "location_lng": 136.7792412
    },
    {
      "zip_code": "925-0141",
      "name": "志賀プリスケア薬局",
      "address": "羽咋郡志賀町字高浜町ク8-1",
      "phone_number": "0767-32-1200",
      "fax": "0767-32-3399",
      "is_available": null,
      "location_lat": 37.0027378,
      "location_lng": 136.77704
    },
    {
      "zip_code": "925-0141",
      "name": "薬局マツモトキヨシ高浜店",
      "address": "羽咋郡志賀町高浜町ヤ69",
      "phone_number": "0767-32-3181",
      "fax": "0767-32-3182",
      "is_available": null,
      "location_lat": 37.00137,
      "location_lng": 136.7762055
    },
    {
      "zip_code": "925-0141",
      "name": "クスリのアオキ志賀高浜薬局",
      "address": "羽咋郡志賀町高浜町ヤの235番地1",
      "phone_number": "0767-32-3531",
      "fax": "0767-32-3532",
      "is_available": null,
      "location_lat": 37.0017497,
      "location_lng": 136.7796309
    },
    {
      "zip_code": "925-0446",
      "name": "富来あおぞら薬局",
      "address": "羽咋郡志賀町富来地頭町七98番26",
      "phone_number": "0767-42-2224",
      "fax": "0767-42-2225",
      "is_available": null,
      "location_lat": 37.1367064,
      "location_lng": 136.7296106
    },
    {
      "zip_code": "925-0447",
      "name": "笠原健招堂薬局",
      "address": "羽咋郡志賀町富来領家町甲63番地4",
      "phone_number": "0767-42-2606",
      "fax": "0767-42-2605",
      "is_available": null,
      "location_lat": 37.1418868,
      "location_lng": 136.7261214
    },
    {
      "zip_code": "929-1811",
      "name": "なかのとまち薬局",
      "address": "鹿島郡中能登町二宮レ169",
      "phone_number": "0767-76-2727",
      "fax": "0767-76-2729",
      "is_available": null,
      "location_lat": 36.9770608,
      "location_lng": 136.927638
    },
    {
      "zip_code": "929-1604",
      "name": "中島薬局",
      "address": "鹿島郡中能登町能登部下70-26",
      "phone_number": "0767-72-2222",
      "fax": "0767-72-3370",
      "is_available": null,
      "location_lat": 36.9590174,
      "location_lng": 136.8608737
    },
    {
      "zip_code": "929-1604",
      "name": "アルプ薬局鹿西店",
      "address": "鹿島郡中能登町能登部下92-58",
      "phone_number": "0767-72-3230",
      "fax": "0767-72-3930",
      "is_available": null,
      "location_lat": 36.9631292,
      "location_lng": 136.8675057
    },
    {
      "zip_code": "929-1717",
      "name": "よつば薬局",
      "address": "鹿島郡中能登町良川る7-1",
      "phone_number": "0767-74-2200",
      "fax": "0767-74-2201",
      "is_available": null,
      "location_lat": 36.9788648,
      "location_lng": 136.886046
    },
    {
      "zip_code": "926-0171",
      "name": "和倉あおぞら薬局",
      "address": "七尾市石崎町タ15-5",
      "phone_number": "0767-62-8931",
      "fax": "0767-62-8932",
      "is_available": null,
      "location_lat": 37.0762166,
      "location_lng": 136.9242157
    },
    {
      "zip_code": "926-0171",
      "name": "ウエルシア薬局七尾和倉店",
      "address": "七尾市石崎町ヨ1番地5",
      "phone_number": "0767-62-1021",
      "fax": "0767-62-1022",
      "is_available": null,
      "location_lat": 37.0775496,
      "location_lng": 136.9278288
    },
    {
      "zip_code": "926-0824",
      "name": "徳田あおぞら薬局",
      "address": "七尾市下町ニ16-1",
      "phone_number": "0767-57-0891",
      "fax": "0767-57-0892",
      "is_available": null,
      "location_lat": 37.0106929,
      "location_lng": 136.9439852
    },
    {
      "zip_code": "926-0811",
      "name": "パトリア中山薬局",
      "address": "七尾市御祓町1番地パトリア1階",
      "phone_number": "0767-54-0739",
      "fax": "0767-54-0738",
      "is_available": null,
      "location_lat": 37.0434958,
      "location_lng": 136.9633857
    },
    {
      "zip_code": "926-0821",
      "name": "ななお調剤薬局",
      "address": "七尾市国分町ラ部3-1",
      "phone_number": "0767-52-2092",
      "fax": "0767-52-8155",
      "is_available": null,
      "location_lat": 37.0356284,
      "location_lng": 136.9516205
    },
    {
      "zip_code": "926-0821",
      "name": "薬局マツモトキヨシ七尾西店",
      "address": "七尾市国分町ラ17",
      "phone_number": "0767-52-8355",
      "fax": "0767-52-8356",
      "is_available": null,
      "location_lat": 37.0352477,
      "location_lng": 136.9528816
    },
    {
      "zip_code": "926-0821",
      "name": "スギ薬局　七尾南店",
      "address": "七尾市国分町子40番地1",
      "phone_number": "0767-58-6351",
      "fax": "0767-58-6352",
      "is_available": null,
      "location_lat": 37.034652,
      "location_lng": 136.9559848
    },
    {
      "zip_code": "926-0042",
      "name": "あおぞら七尾薬局",
      "address": "七尾市作事町58番地2",
      "phone_number": "0767-54-8931",
      "fax": "0767-54-8988",
      "is_available": null,
      "location_lat": 37.0456207,
      "location_lng": 136.9679645
    },
    {
      "zip_code": "926-0048",
      "name": "モリ薬局",
      "address": "七尾市桧物町28番地",
      "phone_number": "0767-53-3123",
      "fax": "0767-53-4656",
      "is_available": null,
      "location_lat": 37.0450591,
      "location_lng": 136.9649419
    },
    {
      "zip_code": "926-0867",
      "name": "阪神調剤薬局さくら店",
      "address": "七尾市桜町78-1",
      "phone_number": "0767-53-5583",
      "fax": "0767-53-5584",
      "is_available": null,
      "location_lat": 37.0511861,
      "location_lng": 136.9629031
    },
    {
      "zip_code": "926-0852",
      "name": "みそぎ薬局",
      "address": "七尾市小島町ニ50-7",
      "phone_number": "0767-52-8280",
      "fax": "0767-52-8281",
      "is_available": null,
      "location_lat": 37.0484092,
      "location_lng": 136.959035
    },
    {
      "zip_code": "926-0852",
      "name": "クスリのアオキ小島薬局",
      "address": "七尾市小島町大開地1番78",
      "phone_number": "0767-52-2701",
      "fax": "0767-52-2721",
      "is_available": null,
      "location_lat": 37.0532559,
      "location_lng": 136.9569625
    },
    {
      "zip_code": "926-0033",
      "name": "あさひ薬局",
      "address": "七尾市千野町に5-2",
      "phone_number": "0767-57-8155",
      "fax": "0767-57-1293",
      "is_available": null,
      "location_lat": 37.0164466,
      "location_lng": 136.9525829
    },
    {
      "zip_code": "926-0057",
      "name": "（有）瀬川薬局",
      "address": "七尾市鍛冶町50",
      "phone_number": "0767-53-0810",
      "fax": "0767-53-3557",
      "is_available": null,
      "location_lat": 37.0438483,
      "location_lng": 136.9641261
    },
    {
      "zip_code": "926-0816",
      "name": "能登総合病院前あおぞら薬局",
      "address": "七尾市藤橋町ア6-19",
      "phone_number": "0767-52-9800",
      "fax": "0767-52-9890",
      "is_available": null,
      "location_lat": 37.0443494,
      "location_lng": 136.9473651
    },
    {
      "zip_code": "926-0816",
      "name": "日本調剤　小丸山薬局",
      "address": "七尾市藤橋町ア部6番19",
      "phone_number": "0767-52-6240",
      "fax": "0767-52-7818",
      "is_available": null,
      "location_lat": 37.0450885,
      "location_lng": 136.9465801
    },
    {
      "zip_code": "926-0816",
      "name": "七尾らいふ薬局",
      "address": "七尾市藤橋町ケ部81番1",
      "phone_number": "0767-52-3587",
      "fax": "0767-52-3507",
      "is_available": null,
      "location_lat": 37.0390071,
      "location_lng": 136.9572343
    },
    {
      "zip_code": "926-0816",
      "name": "ふじはしまち薬局",
      "address": "七尾市藤橋町戊15-4",
      "phone_number": "0767-57-5353",
      "fax": "0767-57-5363",
      "is_available": null,
      "location_lat": 37.0390071,
      "location_lng": 136.9572343
    },
    {
      "zip_code": "926-0017",
      "name": "アルプ薬局七尾万行店",
      "address": "七尾市万行2丁目65番",
      "phone_number": "0767-54-5202",
      "fax": "0767-54-5203",
      "is_available": null,
      "location_lat": 37.0458793,
      "location_lng": 136.9891092
    },
    {
      "zip_code": "926-0021",
      "name": "アルプ薬局本府中店",
      "address": "七尾市本府中町ワ部5番地6",
      "phone_number": "0767-57-5719",
      "fax": "0767-57-5729",
      "is_available": null,
      "location_lat": 37.0358019,
      "location_lng": 136.9698357
    },
    {
      "zip_code": "926-0855",
      "name": "さくら薬局七尾店",
      "address": "七尾市小丸山台3-96",
      "phone_number": "0767-52-9383",
      "fax": "0767-52-9381",
      "is_available": null,
      "location_lat": 37.0444391,
      "location_lng": 136.9486758
    },
    {
      "zip_code": "929-2241",
      "name": "あおぞら薬局",
      "address": "七尾市中島町浜田1-34-1",
      "phone_number": "0767-66-8888",
      "fax": "0767-66-8889",
      "is_available": null,
      "location_lat": 37.1121345,
      "location_lng": 136.8537239
    },
    {
      "zip_code": "926-0046",
      "name": "神明あおぞら薬局",
      "address": "七尾市神明町ロ17番地4",
      "phone_number": "0767-53-8931",
      "fax": "0767-53-8932",
      "is_available": null,
      "location_lat": 37.0424663,
      "location_lng": 136.9657547
    },
    {
      "zip_code": "926-0031",
      "name": "フラスコ薬局",
      "address": "七尾市古府町リ1-4",
      "phone_number": "0767-58-5005",
      "fax": "0767-57-5515",
      "is_available": null,
      "location_lat": 37.0273675,
      "location_lng": 136.9630747
    },
    {
      "zip_code": "926-0041",
      "name": "アイン薬局七尾店",
      "address": "七尾市府中町211-2",
      "phone_number": "0767-54-8000",
      "fax": "0767-54-8001",
      "is_available": null,
      "location_lat": 37.0479281,
      "location_lng": 136.9672718
    },
    {
      "zip_code": "926-0175",
      "name": "つじ薬局",
      "address": "七尾市和倉町ワ部3-6",
      "phone_number": "0767-62-3433",
      "fax": "0767-62-4044",
      "is_available": null,
      "location_lat": 37.0890287,
      "location_lng": 136.9163344
    },
    {
      "zip_code": "926-0203",
      "name": "のとじま薬局",
      "address": "七尾市能登島えの目町29部7番地1",
      "phone_number": "0767-84-0087",
      "fax": "0767-84-0087",
      "is_available": "のとじま診療所及び避難所の調剤のみ可",
      "location_lat": 37.151707,
      "location_lng": 137.0494909
    },
    {
      "zip_code": "927-0027",
      "name": "アイン薬局穴水店",
      "address": "鳳珠郡穴水町字川島タ1-1",
      "phone_number": "0768-52-8311",
      "fax": "0768-52-8312",
      "is_available": null,
      "location_lat": 37.2340526,
      "location_lng": 136.9092958
    },
    {
      "zip_code": "927-0027",
      "name": "クスリのアオキ穴水川島薬局",
      "address": "鳳珠郡穴水町字川島レの24番地1",
      "phone_number": "0768-23-4125",
      "fax": "0768-23-4126",
      "is_available": null,
      "location_lat": 37.2329047,
      "location_lng": 136.9080263
    },
    {
      "zip_code": "927-0027",
      "name": "薬局マツモトキヨシ穴水店",
      "address": "鳳珠郡穴水町字川島レ30番1",
      "phone_number": "0768-52-2252",
      "fax": "0768-52-2253",
      "is_available": null,
      "location_lat": 37.2329047,
      "location_lng": 136.9080263
    },
    {
      "zip_code": "927-0027",
      "name": "穴水たんぽぽ薬局",
      "address": "鳳珠郡穴水町字川島レ38番1",
      "phone_number": "0768-52-3681",
      "fax": "0768-52-3682",
      "is_available": null,
      "location_lat": 37.2338442,
      "location_lng": 136.9083742
    },
    {
      "zip_code": "927-0027",
      "name": "穴水あおば薬局",
      "address": "鳳珠郡穴水町字川島ろ3番地2",
      "phone_number": "0768-52-1413",
      "fax": "0768-52-1425",
      "is_available": null,
      "location_lat": 37.2333906,
      "location_lng": 136.9023778
    },
    {
      "zip_code": "927-0053",
      "name": "サエラ薬局",
      "address": "鳳珠郡穴水町此木壱143番1",
      "phone_number": "0768-52-3820",
      "fax": "0768-52-3821",
      "is_available": null,
      "location_lat": 37.2547101,
      "location_lng": 136.905929
    },
    {
      "zip_code": "927-0431",
      "name": "あいの風薬局",
      "address": "鳳珠郡能登町字宇出津山分2-19-3",
      "phone_number": "0768-62-1515",
      "fax": "0768-62-1516",
      "is_available": null,
      "location_lat": 37.3072697,
      "location_lng": 137.1529184
    },
    {
      "zip_code": "927-0432",
      "name": "小西薬局",
      "address": "鳳珠郡能登町字宇出津新35",
      "phone_number": "0768-62-1524",
      "fax": "0768-62-0058",
      "is_available": null,
      "location_lat": 37.3079542,
      "location_lng": 137.1483339
    },
    {
      "zip_code": "927-0433",
      "name": "宇出津らいふ薬局",
      "address": "鳳珠郡能登町字宇出津タ70-8",
      "phone_number": "0768-62-3376",
      "fax": "0768-62-3386",
      "is_available": null,
      "location_lat": 37.309133,
      "location_lng": 137.1475903
    },
    {
      "zip_code": "927-0433",
      "name": "たておか薬局",
      "address": "鳳珠郡能登町字宇出津ム字11",
      "phone_number": "0768-62-0044",
      "fax": "0768-62-3862",
      "is_available": null,
      "location_lat": 37.3065113,
      "location_lng": 137.1463547
    },
    {
      "zip_code": "927-0553",
      "name": "おぎ薬局",
      "address": "鳳珠郡能登町小木15字23番6",
      "phone_number": "0768-74-0075",
      "fax": "0768-74-0076",
      "is_available": null,
      "location_lat": 37.2997233,
      "location_lng": 137.2279116
    },
    {
      "zip_code": "927-0602",
      "name": "クオール能登町薬局（※松波中学校内 仮設店舗）",
      "address": "鳳珠郡能登町字松波10-107-1",
      "phone_number": "0768-72-2289",
      "fax": "0768-72-2290",
      "is_available": "松波中学校にて、平日９～15時、土曜９～12時",
      "location_lat": 37.3567886,
      "location_lng": 137.2449578
    },
    {
      "zip_code": "928-0022",
      "name": "日本調剤　ワイプラザ薬局",
      "address": "輪島市宅田町48番地1",
      "phone_number": "0768-23-0772",
      "fax": "0768-23-0774",
      "is_available": null,
      "location_lat": 37.3854182,
      "location_lng": 136.9036849
    },
    {
      "zip_code": "928-0022",
      "name": "クスリのアオキ輪島薬局",
      "address": "輪島市宅田町58番地",
      "phone_number": "0768-23-0202",
      "fax": "0768-23-0208",
      "is_available": null,
      "location_lat": 37.3865165,
      "location_lng": 136.9020806
    },
    {
      "zip_code": "928-0064",
      "name": "輪島菜の花薬局",
      "address": "輪島市釜屋谷町1字24-3",
      "phone_number": "0768-23-8360",
      "fax": "0768-23-8366",
      "is_available": "夜通常より早めに閉局(来局予定あれば対応)",
      "location_lat": 37.3892508,
      "location_lng": 136.8936394
    },
    {
      "zip_code": "927-2156",
      "name": "門前薬局",
      "address": "輪島市門前町門前1994番邸",
      "phone_number": "0768-42-0077",
      "fax": "0768-42-0967",
      "is_available": null,
      "location_lat": 37.2894513,
      "location_lng": 136.7685071
    },
    {
      "zip_code": "927-2164",
      "name": "日本調剤　門前町薬局",
      "address": "輪島市門前町道下七7-1",
      "phone_number": "0768-43-1820",
      "fax": "0768-43-1821",
      "is_available": null,
      "location_lat": 37.288969,
      "location_lng": 136.7451204
    }
  ]
}
